Address,City,State,Zipcode,Name,Phone,URL,longitude,latitude,,
2530 Georgia Street South            ,AMARILLO,TX ,79109,UNITED #526 #10526,(806) 468-9900,,-101.868012,35.187345,,
920 Foothill Blvd,La Canada Flintridge,CA,91011,Sprouts Farmers Market,,,-118.19855,34.211623,,
687 S. Coast Highway 101,ENCINITAS,CA,92024,Whole Foods Market ENCINITAS,,http://www.wholefoodsmarket.com/,-117.293026,33.044081,,
"2600 Via De La Valle, Suite 100",DEL MAR,CA,92014,Whole Foods Market DEL MAR,,http://www.wholefoodsmarket.com/,-117.251812,32.981704,,
2 Somerset St.,PORTLAND,ME,4101,Whole Foods Market PORTLAND ,,,-70.258979,43.663524,,
331 Paradise Road,SWAMPSCOTT,MA,1907,Whole Foods Market SWAMPSCOTT,,,-70.904882,42.479094,,
"94 Derby Street, Suite 200",HINGHAM,MA,2043,Whole Foods Market HINGHAM,,,-70.90956,42.17756,,
100 Market Street,LYNNFIELD,MA,1940,Whole Foods Market LYNNFIELD,,,-71.02967,42.5151,,
181 Cambridge St.,BOSTON,MA,2114,Whole Foods Market CHARLES RIVER PLAZA,,,-71.065349,42.362058,,
78 CRANDALL ROAD                        ,LITTLE COMPTON,RI ,2837,SIMMONS CAFE AND MARKET,,,-71.12899,41.554479,,
200 Alewife Brook Parkway,CAMBRIDGE,MA,2138,Whole Foods Market FRESH POND,,,-71.141616,42.389194,,
40 Railroad St.,ANDOVER,MA,1810,Whole Foods Market ANDOVER,,,-71.145016,42.660961,,
950 Providence Highway,DEDHAM,MA,2026,Whole Foods Market DEDHAM,,,-71.17925,42.2313,,
170 Great Road,BEDFORD,MA,1730,Whole Foods Market BEDFORD,,,-71.274087,42.490354,,
601 N. Main & Doyle Ave.,PROVIDENCE,RI,2904,Whole Foods Market UNIVERSITY HTS,,,-71.408254,41.837167,,
575 Worchester Road,FRAMINGHAM,MA,1701,Whole Foods Market FRAMINGHAM,,,-71.42097,42.298601,,
270 LONDONDERRY TURNPIKE                ,HOOKSETT,NH ,3106,NATURAL CHOICE MARKET *INFRA*,,,-71.428232,43.045206,,
327 Russell Street,HADLEY,MA,1035,Whole Foods Market HADLEY,,,-72.555315,42.353117,,
55 Welles Street,GLASTONBURY,CT,6033,Whole Foods Market GLASTONBURY,,,-72.607726,41.714812,,
920 RIVER STREET SUITE E                ,WINDSOR,CT ,6095,WEB VITAMINS,,,-72.646888,41.895434,,
50 Raymond Road,WEST  HARTFORD,CT,6107,Whole Foods Market WEST HARTFORD,,,-72.738817,41.760876,,
21 ESSEX WAY STE 418                    ,ESSEX,VT ,5452,SWEET CLOVER MARKET,,,-73.080066,44.508192,,
42 Forest Ave,Glen Cove,NY,11542,Rising Tide Natural Market,(516) 676-7895,,-73.62669,40.87111,,
360 NASSAU STREET,PRINCETON,NJ,8540,Whole Earth Center,(609) 924-7429,http://www.wholeearthcenter.com/,-74.64504,40.35431,,
276 U.S. 202 #1,Flemington,NJ,8822,Basil Bandwagon Natural Market,,,-74.853194,40.49836,,
41 Clementon Rd,Berlin,NJ,8009,Good 4U Health Foods General,(856) 753-1472,,-74.940474,39.798503,,
239 N UNION ST                          ,LAMBERTVILLE,NJ ,8530,BIG BEAR NATURAL FOODS,,,-74.948335,40.375592,,
1575 Main St,Hellertown,PA,18055,Frey's Better Foods,,,-75.33973,40.592217,,
3409 Edgmont Avenue,Brookhaven,PA,19015,Burman's Natural Foods,(610) 874-8418,,-75.38373,39.87,,
5 N STATE ST                            ,NEWTOWN,PA ,18940,GRAPEVINE NATURAL GROCERY,,,-75.7051,41.49563,,
41675 PARK AVE                          ,LEONARDTOWN,MD ,20650,GOOD EARTH NATURAL FOODS,,,-76.634522,38.289994,,
871 ANNAPOLIS ROAD,GAMBRILLS,MD,21054,David's Natural Market,(410) 987-1533,http://www.davidsnaturalmarket.com,-76.66906,39.066716,,
918 WEST CORBETT AVE (HWY 24)           ,SWANSBORO *COD*,NC ,28584,NEW BRIDGE ORGANIC MKT #2,,,-77.141291,34.699035,,
708 NEW BRIDGE ST    ** COD **          ,JACKSONVILLE,NC ,28540,NEW BRIDGE ORGANIC MARKET,,,-77.42252,34.74945,,
305 E Market St,Leesburg,VA,20176,Healthy By Nature Health Store,,,-77.560134,39.111941,,
341 E Colonial Hwy,Hamilton,VA,20158,Natural Mercantile Store,,,-77.656529,39.133998,,
1505 Enterprise Drive,Lynchburg,VA,24502,Health Nut Nutrition,,,-79.240758,37.357704,,
602 James Doak Pkwy,Greensboro,NC,27455,American Discount Books LLC,,,-79.820708,36.200459,,
"1170 Oviedo Marketplace Blvd, Ste 1000",Oviedo,FL,32765,Chamberlinís Natural Foods,,http://www.chamberlins.com/,-81.2384,28.66084,,
430 N. Orlando Ave.,Winter Park,FL,32789,Chamberlinís Natural Foods,,http://www.chamberlins.com/,-81.364429,28.600805,,
1086 Montgomery Road,Altamonte Springs,FL,32714,Chamberlinís Natural Foods,,http://www.chamberlins.com/,-81.404076,28.686489,,
1114 N John Young Parkway,Kissimmee,FL,34741,Chamberlinís Natural Foods,,http://www.chamberlins.com/,-81.416173,28.301951,,
"7600 Dr. Phillips Blvd, Ste 88",Orlando,FL,32819,Chamberlinís Natural Foods,,http://www.chamberlins.com/,-81.49056,28.45143,,
1855 E MAIN ST                          ,SPARTANBURG,SC ,293072309,GARNERS NATURAL FOODS,,,-81.89272,34.967076,,
1531 US Hwy 98 South,Lakeland,FL,33801,Chamberlinís Natural Foods,,http://www.chamberlins.com/,-81.92823,28.02687,,
1 MARKET STREET                         ,BREVARD,NC ,28712,FOOD MATTERS MARKET*INFRA*,,,-82.721052,35.252687,,
1210 Pasadena Ave S,South Pasadena,FL,33707,Health Food Plus & Herbs Inc,,,-82.736355,27.757429,,
3509 N High Street,Columbus,OH,43214,Momentum 98 Health Store,(614) 262-7087,,-83.016777,40.033681,,
1203 S MAIN ST                          ,ROYAL OAK,MI ,48067,HOLIDAY FOOD CENTER,,,-83.142933,42.479048,,
1203 S Main St,Royal Oak,MI,48067,Holiday Market,,,-83.14294,42.47904,,
34164 Plymouth Rd,Livonia,MI,48150,Zerbo's Health Foods,(734) 427-3144,http://www.zerbos.com,-83.381001,42.368465,,
5625 DIXIE HIGHWAY                      ,WATERFORD,MI ,48329,SIMPLY NATURAL HEALTH FDS,,,-83.400418,42.699897,,
3320 Briarfield Blvd,Maumee,OH,43537,Walt Churchill's Market,,,-83.697026,41.580546,,
1500 BROWNS BRIDGE RD                   ,GAINESVILLE,GA ,30504,GOOD NUTRITION GAINESVILLE,,,-83.842683,34.287144,,
1250 Scenic Highway #1706,Lawrenceville,GA,30045,Sprouts Farmers Market,,,-84.0045,33.89949,,
530 Lakeland Plaza,Cumming,GA,30040,Sprouts Farmers Market,,,-84.14304,34.18506,,
"5130 Peachtree Pkwy, Suite 100",Peachtree Corners,GA,30092,Sprouts Farmers Market,,,-84.214277,33.981252,,
1415 Timberlane Rd,Tallahassee,FL,32312,Honeytree Natural Foods,,,-84.254729,30.504063,,
2480 Mount Vernon Rd,Dunwoody,GA,30338,Sprouts Farmers Market,,,-84.301753,33.958571,,
4274 Peachtree St,Atlanta,GA,30319,4 Kicks Ltd,,,-84.33563,33.867989,,
10703 ALPHARETTA HWY                    ,ROSWELL,GA ,300761424,GOOD NUTRITION ROSWELL,,,-84.34185,34.04148,,
668 HIGHLAND AVE                        ,ATLANTA,GA ,30312,ACROSS THE STREET MARKET,,,-84.365386,33.761448,,
2655 EAST GRAND RIVER                   ,EAST LANSING,MI ,488235608,FOODS FOR LIVING,,,-84.448199,42.724136,,
4500 W Village Pl #1001,Smyrna,GA,30080,Goodness Grocery,,,-84.49087,33.84265,,
9999 HWY 92 - SUITE 120                 ,WOODSTOCK,GA ,30188,GOOD NUTRITION WOODSTOCK,,,-84.52155,34.08665,,
260 East Tenth Street,Traverse City,MI,49684,Oryana Natural Foods Market,(231) 947-0191,http://oryana.coop/,-85.61871,44.75702,,
3717 S REED ROAD                        ,KOKOMO,IN ,46902,SUNSPOT NATURAL MARKET,,,-86.125916,40.44282,,
8215 US 31 SOUTH                        ,INDIANAPOLIS,IN ,46227,NATURE'S PHARM GREENWD *INFRA*,,,-86.133955,39.646496,,
14678 STATE ROAD 23                     ,GRANGER,IN ,46530,DOWN TO EARTH *INFRA*,,,-86.152863,41.735492,,
9067 US Highway 31                              ,BERRIEN SPRINGS,MI ,49103,APPLE VALLEY BERRIEN  (PARENT),,,-86.354529,41.955434,,
3500 STATE ROAD 38 EAST                 ,LAFAYETTE,IN ,47905,NATURE'S PHARM *INFRA*,,,-86.86703,40.39958,,
102 6TH AVE W                           ,SPRINGFIELD,TN ,37172,"OUR SERENITY SHOP   ""B""",,,-86.885209,36.508624,,
315 W GARDEN ST                         ,PENSACOLA,FL ,32502,EVERMANS,,,-87.220983,30.411562,,
175 East Delaware Place,Chicago,IL,60611,Potash Markets,(312) 884-0060,,-87.62303,41.89882,,
875 North State Street,Chicago,IL,60610,Potash Markets,(312) 266-4200,,-87.628001,41.898672,,
1525 North Clark Street,Chicago,IL,60610,Potash Markets,(312) 337-7537,,-87.631242,41.910399,,
213 West Institute Place #709,Chicago,IL,60610,Flex Pilates Chicago,(312) 587-9000,http://flexpilateschicago.com/,-87.635206,41.897203,,
3312 N Broadway,Chicago,IL,60657,Bountiful Eatery,(773) 687-9811,http://bountifuleatery.com/,-87.6445,41.94245,,
3514 N. Southport Ave.,Chicago,IL,60657,Aligned Modern Health,(773) 248-2544,,-87.664154,41.945758,,
149 SKOKIE VALLEY ROAD                  ,HIGHLAND PARK,IL ,60035,HIGHLAND HEALTH FOODS INC.,,,-87.80357,42.15504,,
1035 MULLIGAN DR.  #2                   ,BRADLEY,IL ,60915,KANKAKEE NATURAL FOODS,,,-87.849675,41.151058,,
"2211 York Road, Suite 103",Oak Brook,IL,60523,Equator Lobby Shop,,,-87.927721,41.846452,,
804 E. Ogden Ave.,Westmont,IL,60559,Urban Tri Gear,(630) 230-9386,,-87.950402,41.812068,,
17 W 675 ROOSEVELT RD                   ,Oakbrook Terrace,IL ,60181,PETE'S FRESH MARKET,,,-87.973643,41.858775,,
5120 Belmont Road Suite G,Downers Grove,IL,60515,ADG Nutrition,,,-88.038672,41.794162,,
2321 S ONIEDA STREET                    ,GREEN BAY,WI ,54304,B-ALIVE     FF#902015,,,-88.065148,44.48831,,
488 Crescent Blvd. ,Glen Ellyn,IL,60137,The Yoga Place,(630) 534-6469,,-88.068146,41.87671,,
1283 E Ogden Ave #183,Naperville,IL,60563,iHealth,,,-88.12619,41.79398,,
1304-F CHESTNUT                         ,MURRAY,KY ,42071,PEACH BLOSSOM,,,-88.316774,36.6173,,
291 CONVENANT SQUARE DR STE D           ,BILOXI,MS ,39531,VITAMIN WAREHOUSE   **COD**,,,-88.977909,30.400667,,
6551 E RIVERSIDE BLVD                   ,ROCKFORD,IL ,61114,CHOICES NATURAL MARKET *INFRA*,,,-88.988252,42.317841,,
8110 BIG BEND BLVD                      ,ST LOUIS,MO ,63119,NATURAL WAY GROCERY,,,-90.33769,38.59184,,
2434 LONDON ROAD                        ,EAU CLAIRE,WI ,54701,MOTHER NATURES FDS  FF#913764,,,-91.463747,44.793153,,
111-C RENA DRIVE                        ,LAFAYETTE,LA ,70503,SANDRA'S HEALTH FOOD STORE,,,-92.05559,30.192944,,
133 S JEFFERSON                         ,AVA,MO ,65608,JEANS HEALTHWAY,,,-92.66034,36.9531,,
1344 E Battlefield,Springfield,MO,65804,Akinís Natural Foods,,http://www.akins.com/,-93.272888,37.158616,,
"4040 UNIVERSITY, STE. D                 ",DES MOINES,IA ,50311,CAMPBELL'S NUTRITION *INFRA*,,,-93.672634,41.599941,,
2749 100TH ST.                          ,URBANDALE,IA ,50322,CAMPBELL'S *INFRA*,,,-93.75566,41.61981,,
4019 W Walnut,Rogers,AR,72756,Akinís Natural Foods,,http://www.akins.com/,-94.176332,36.336312,,
14715 EDGEWOOD DR                       ,BAXTER,MN ,56425,LIFE PRESERVER NAT.(FF)  'B',,,-94.245405,46.36528,,
6821 W. 135th Street,Overland Park,KS,66223,Sprouts Farmers Market,,,-94.665842,38.881812,,
2800 E. Broadway Street,Pearland,TX,77581,Sprouts Farmers Market,,,-95.262844,29.55431,,
3704 EAST BROADWAY SUITE C              ,PEARLAND,TX ,77581,NATURAL REWARDS 'A',,,-95.28306,29.56346,,
5614 S. BROADWAY                       ,TYLER,TX ,75703,VITAMINS PLUS #284-TYLER,,,-95.30353,32.28813,,
20708 Kuykendahl Road,Spring,TX,77379,Sprouts Farmers Market,,,-95.51044,30.07132,,
22506 Tomball Parkway,Houston,TX,77070,Sprouts Farmers Market,,,-95.58768,30.011703,,
11940 Westheimer Rd,Houston,TX,77077,Sprouts Farmers Market,,,-95.58968,29.73658,,
990 Village Square Dr.,Tomball,TX,77375,Natural Health Solutions,,,-95.625406,30.0963,,
7055 Highway 6 North #A,Houston,TX,77084,Sprouts Farmers Market,,,-95.646868,29.880762,,
2913 SW 29th,Topeka,KS,66614,Akinís Natural Foods,,http://www.akins.com/,-95.71499,39.01414,,
23105 Cinco Ranch Blvd,Katy,TX,77494,Sprouts Farmers Market,,,-95.76929,29.744,,
12003 S. Memorial Drive,Bixby,OK,74008,Akinís Natural Foods,,http://www.akins.com/,-95.88649,35.98966,,
10111 S. Memorial Drive,Bixby,OK,74133,Sprouts Farmers Market,,,-95.88662,36.01633,,
7807 E 51st Street,Tulsa,OK,74145,Akinís Natural Foods,,http://www.akins.com/,-95.889855,36.091273,,
3321 E 31St Street,Tulsa,OK,74135,Akinís Natural Foods,,http://www.akins.com/,-95.938819,36.119542,,
4123 S. Harvard Avenue,Tulsa,OK,74135,Sprouts Farmers Market,,,-95.94017,36.1038,,
8409 West Center Rd,Omaha,NE,68124,Akinís Natural Foods,,http://www.akins.com/,-96.04356,41.23349,,
207 E FM-544,Murphy,TX,75094,Sprouts Farmers Market,,,-96.607972,33.013399,,
"6900 ìOî Street, Ste 100",Lincoln,NE,68510,Akinís Natural Foods,,http://www.akins.com/,-96.62654,40.81443,,
985 WEST BETHANY DR                     ,ALLEN,TX ,75013,UNITED #563 MARKET STREET,,,-96.684709,33.089941,,
6100 W ELDORADO PKWY                    ,MCKINNEY,TX ,75070,UNITED #561 MARKET STREET,,,-96.69618,33.174974,,
9241 Virginia Parkway,McKinney,TX,75090,Sprouts Farmers Market,,,-96.73281,33.20348,,
1343 W. Campbell Road,Richardson,TX,75080,Sprouts Farmers Market,,,-96.764958,32.976893,,
4100 Legacy Drive #401,Plano,TX,75204,Sprouts Farmers Market,,,-96.773338,33.06996,,
109 Broadway,Fargo,ND,58102,Swanson Health Products (Retail Store) ,701-293-9842,http://www.swansonvitamins.com/,-96.787137,46.877439,,
1929 PRESTON RD                         ,PLANO,TX ,75093,UNITED #566 MARKET STREET,,,-96.799267,33.025877,,
5190 Preston Road,Frisco,TX,75034,Sprouts Farmers Market,,,-96.802781,33.121644,,
11999 DALLAS PKWY @ ELDORADO            ,FRISCO,TX ,75034,UNITED #562 MARKET STREET,,,-96.842906,33.177026,,
11722 Marsh Lane #317,Dallas,TX,75229,Sprouts Farmers Market,,,-96.853581,32.90858,,
1745 E. Hebron Pkwy,Carrollton,TX,75010,Sprouts Farmers Market,,,-96.888564,33.025454,,
362 E. FM 1382,Cedar Hill,TX,75104,Sprouts Farmers Market,,,-96.939175,32.592554,,
700 N. DENTON TAP ROAD                  ,COPPELL,TX ,75019,UNITED #564 MARKET STREET,,,-96.992613,32.988033,,
110 W. Sandy Lake Road,Coppell,TX,75019,Sprouts Farmers Market,,,-96.994788,32.970416,,
2301 Cross Timbers #200,Flower Mound,TX,75028,Sprouts Farmers Market,,,-97.064268,33.033543,,
3800 LONG PRAIRIE RD                    ,FLOWER MOUND,TX ,75028,UNITED #565 MARKET STREET,,,-97.0696,33.03721,,
5605 COLLEYVILLE BLVD                   ,COLLEYVILLE,TX ,76034,UNITED #560 #10560,,,-97.146806,32.889385,,
608 DRY CREEK ROAD                      ,WACO,TX ,76705,HOMESTEAD HERITAGE,,,-97.15272,31.666432,,
220 Randol Mill Ave,South Lake,TX,76092,Sprouts Farmers Market,,,-97.186788,32.938698,,
2003 S. Main,Keller,TX,76248,Sprouts Farmers Market,,,-97.25807,32.89848,,
1440 Airline Rd,Corpus Christi,TX,78412,Sprouts Farmers Market,,,-97.362011,27.705258,,
4650 SW Loop 820,Fort Worth,TX,76109,Sprouts Farmers Market,,,-97.393924,32.683196,,
555 West Main St,Norman,OK,73069,Sprouts Farmers Market,,,-97.45055,35.218817,,
24 E. 2nd Street,Edmond,OK,73034,Sprouts Farmers Market,,,-97.480483,35.652345,,
2370 W. Memorial Rd.,Oklahoma City,OK,73134,Akinís Natural Foods,,http://www.akins.com/,-97.555044,35.607009,,
6410 N. May Ave,Oklahoma City,OK,73116,Sprouts Farmers Market,,,-97.564898,35.537316,,
2924 NW 63rd Street,Oklahoma City,OK,73116,Akinís Natural Foods,,http://www.akins.com/,-97.566758,35.535579,,
601 FM 1187 N SUITE 5                   ,ALEDO,TX ,76008,BULK & BUNCHES,,,-97.603237,32.703044,,
110 Interstate Hwy 35 North #299,Round Rock,TX,78681,Sprouts Farmers Market,,,-97.687195,30.508711,,
10225 Research Rd,Austin,TX,78759,Sprouts Farmers Market,,,-97.744686,30.394503,,
4006 S. Lamar Blvd,Austin,TX,78704,Sprouts Farmers Market,,,-97.793054,30.237987,,
2187 W South Loop,Stephenville,TX,76401,Barefoot Market,,,-98.22354,32.2071,,
2008 N. 10th Street,McAllen,TX,78501,Sprouts Farmers Market,,,-98.226299,26.221852,,
2502 Nacogdoches Road,San Antonio,TX,78217,Sprouts Farmers Market,,,-98.449397,29.517795,,
17700 N. US Hwy 281 #200,San Antonio,TX,78232,Sprouts Farmers Market,,,-98.469012,29.601862,,
8101 Callaghan Rd,San Antonio,TX,78230,Sprouts Farmers Market,,,-98.5512,29.51253,,
967 E MAIN                              ,EASTLAND,TX ,76448,"NATURE'S HEALTH SHOP ""B""",,,-98.80334,32.40168,,
2550 BARROW ST                          ,ABILENE,TX ,79605,VITAMINS PLUS #251-ABILENE,,,-99.75963133,32.41869541,,
110 S SPRING LAKE ST                    ,MEADE,KS ,67864,MEADE THRIFTWAY 'B',,,-100.34135,37.28436,,
2530 SOUTH GEORGIA                      ,AMARILLO,TX ,79109,UNITED #526 #10526,,,-101.868003,35.186284,,
3405 50TH ST                            ,LUBBOCK,TX ,79413,UNITED #502 #10502,,,-101.8879964,33.54863161,,
3405 50TH ST                            ,LUBBOCK,TX ,79413,UNITED #502 #10502,,,-101.889025,33.547651,,
8201 Quaker Ave #140,Lubbock,TX,79424,Sprouts Farmers Market,,,-101.90377,33.51875,,
4425 19TH ST                            ,LUBBOCK,TX ,79407,UNITED #553 MARKET STREET,,,-101.906373,33.57577,,
20831 E. Smoky Hill Rd,Centennial,CO,80015,Sprouts Farmers Market,,,-104.745374,39.608494,,
"4759 W. 29th Street, Unit B",Greeley,CO,80634,Sprouts Farmers Market,,,-104.758578,40.390683,,
9751 S. Parker Road,Parker,CO,80134,Sprouts Farmers Market,,,-104.771371,39.539095,,
1730 Dublin Blvd,Colorado Springs,CO,80918,Sprouts Farmers Market,,,-104.79513,38.926555,,
15405 E. Briarwood Circle,Aurora,CO,80016,Sprouts Farmers Market,,,-104.809066,39.593612,,
1150 S. Ironton St. Unit 130,Aurora,CO,80012,Sprouts Farmers Market,,,-104.86279,39.69514,,
5650 Allen Way,Castle Rock,CO,80108,Sprouts Farmers Market,,,-104.863326,39.415228,,
10018 Common St,Lone Tree,CO,80124,Sprouts Farmers Market,,,-104.88194,39.5345,,
8557 E. Arapahoe Road #B,Greenwood Village,CO,80112,Sprouts Farmers Market,,,-104.890977,39.596359,,
2880 S. Colorado Blvd,Denver,CO,80222,Sprouts Farmers Market,,,-104.939398,39.664218,,
1980 E. County Line Rd,Highlands Ranch,CO,80126,Sprouts Farmers Market,,,-104.963232,39.564949,,
1131 E. 120th Avenue,Thornton,CO,80233,Sprouts Farmers Market,,,-104.973378,39.916617,,
3360 Larimer St.,Denver,CO,80205,NOOCH | Vegan Market ,(720) 328-5324,https://www.facebook.com/noochveganmarket,-104.97582,39.7659,,
4345 Corbett Drive,Fort Collins,CO,80525,Sprouts Farmers Market,,,-105.02907,40.52592,,
4700 W. 38th Avenue,Denver,CO,80212,Sprouts Farmers Market,,,-105.048305,39.768943,,
5150 W. 120th Avenue,Westminster,CO,80030,Sprouts Farmers Market,,,-105.050347,39.912261,,
2601 S. Lemay Ave,Fort Collins,CO,80525,Sprouts Farmers Market,,,-105.059002,40.551333,,
7725 Wadsworth Blvd,Arvada,CO,80003,Sprouts Farmers Market,,,-105.08339,39.836424,,
8601 W. Cross Drive,Littleton,CO,80123,Sprouts Farmers Market,,,-105.092909,39.615117,,
555 W. South Boulder Rd,Lafayette,CO,80026,Sprouts Farmers Market,,,-105.096487,39.988748,,
1101 S. Hover,Longmont,CO,80501,Sprouts Farmers Market,,,-105.13086,40.14795,,
2950 Baseline Road,Boulder,CO,80303,Sprouts Farmers Market,,,-105.254414,39.999069,,
2525 Arapahoe Ave,Boulder,CO,80302,Sprouts Farmers Market,,,-105.261348,40.015656,,
199 Paseo de Peralta,Santa Fe,NM,87501,Sprouts Farmers Market,,,-105.949553,35.692529,,
3201 Zafarano Dr #20,Santa Fe,NM,87507,Sprouts Farmers Market,,,-106.013032,35.64522,,
11201 Montgomery Blvd NE,Albuquerque,NM,87111,Sprouts Farmers Market,,,-106.514716,35.131032,,
655 Sunland Park Drive #B,El Paso,TX,79912,Sprouts Farmers Market,,,-106.542912,31.819961,,
6300 San Mateo Blvd NE,Albuquerque,NM,87109,Sprouts Farmers Market,,,-106.585909,35.149712,,
5112 Lomas Blvd NE,Albuquerque,NM,87110,Sprouts Farmers Market,,,-106.587828,35.086757,,
10701 Corrales Rd NW,Albuquerque,NM,87114,Sprouts Farmers Market,,,-106.64259,35.20729,,
1450 W. Independent Ave,Grand Junction,CO,81505,Sprouts Farmers Market,,,-108.59398,39.08373,,
7877 E. Broadway Blvd,Tucson,AZ,85710,Sprouts Farmers Market,,,-110.824888,32.222468,,
5555 E. River Road,TUSCON,AZ,85750,Whole Foods Market RIVER ROAD,,http://www.wholefoodsmarket.com/,-110.87345,32.27347,,
4645 E. Speedway Blvd,Tucson,AZ,85712,Sprouts Farmers Market,,,-110.893548,32.237519,,
4282 N. 1st Avenue,Tucson,AZ,85719,Sprouts Farmers Market,,,-110.959472,32.28539,,
7665 North Oracle,Oro Valley,AZ,85704,Sprouts Farmers Market,,,-110.977925,32.3467,,
3860 West River Road,Tucson,AZ,85741,Sprouts Farmers Market,,,-111.04341,32.322154,,
1045 South University Ave,Provo,UT,84601,Good Earth Natural Foods,,http://www.goodearthnaturalfoods.com/,-111.65896,40.21935,,
1560 N. Riordan Ranch Rd,Flagstaff,AZ,86001,Sprouts Farmers Market,,,-111.659058,35.184854,,
1375 S. State Street,Orem,UT,84097,Sprouts Farmers Market,,,-111.682766,40.271955,,
500 S State,Orem,UT,84058,Good Earth Natural Foods,,http://www.goodearthnaturalfoods.com/,-111.69155,40.288159,,
5225 E. Southern Ave.,Mesa,AZ,85206,Sprouts Farmers Market,,,-111.718076,33.392245,,
2582 S. Val Vista Drive,Gilbert,AZ,85296,Sprouts Farmers Market,,,-111.757567,33.303223,,
1933 E. Brown,Mesa,AZ,85213,Sprouts Farmers Market,,,-111.789276,33.43606,,
336 West Main,American Fork,UT,84003,Good Earth Natural Foods,,http://www.goodearthnaturalfoods.com/,-111.807406,40.377341,,
7905 South 700 East,Sandy,UT,84070,Good Earth Natural Foods,,http://www.goodearthnaturalfoods.com/,-111.871296,40.607214,,
1959 West Ray Road,Chandler,AZ,85224,Sprouts Farmers Market,,,-111.875588,33.318965,,
9301 E. Shea Blvd #132,Scottsdale,AZ,85260,Sprouts Farmers Market,,,-111.880743,33.581394,,
6284 S. State Street,Murray,UT,84107,Sprouts Farmers Market,,,-111.890355,40.634425,,
1706 E. Southern Ave,Tempe,AZ,85282,Sprouts Farmers Market,,,-111.911536,33.394307,,
4402 N. Miller Road,Scottsdale,AZ,85251,Sprouts Farmers Market,,,-111.91755,33.49964,,
7111 East Mayo Blvd.,PHOENIX,AZ,85054,Whole Foods Market SCOTTSDALE,480-515-3777,http://www.wholefoodsmarket.com/,-111.927898,33.653922,,
12415 N Tatum Blvd,Phoenix,AZ,85032,Sprouts Farmers Market,,,-111.978669,33.599479,,
10810 N. Tatum Blvd.,PHOENIX,AZ,85028,Whole Foods Market PARADISE VALLEY,602-569-7600,http://www.wholefoodsmarket.com/,-111.979084,33.585014,,
4735 E. Ray Rd #100,Phoenix,AZ,85044,Sprouts Farmers Market,,,-111.98113,33.31765,,
1050 West Riverdale,Road Riverdale,UT,84405,Good Earth Natural Foods,,http://www.goodearthnaturalfoods.com/,-112.003365,41.177672,,
2824 E. Indian School Rd #126,Phoenix,AZ,85016,Sprouts Farmers Market,,,-112.019675,33.496027,,
1625 E. Glendale Ave,Phoenix,AZ,85020,Sprouts Farmers Market,,,-112.04579,33.53825,,
8040 19th Avenue,Phoenix,AZ,85021,Sprouts Farmers Market,,,-112.101083,33.554615,,
5130 W. Peoria Ave.,Glendale,AZ,85302,Sprouts Farmers Market,,,-112.170063,33.583168,,
6760 W. Deer Valley Rd,Glendale,AZ,85310,Sprouts Farmers Market,,,-112.20368,33.68192,,
8375 W. Thunderbird Road,Peoria,AZ,85381,Sprouts Farmers Market,,,-112.239046,33.60866,,
1813 N. Dysart Road,Avondale,AZ,85392,Sprouts Farmers Market,,,-112.33983,33.468512,,
13759 W. Bell Road,Surprise,AZ,85374,Sprouts Farmers Market,,,-112.35503,33.63857,,
515 North Stephanie Street,Henderson,NV,89014,Sprouts Farmers Market,,,-115.048303,36.056893,,
635 S. Green Valley Parkway,Henderson,NV,89052,Sprouts Farmers Market,,,-115.084562,36.004214,,
3365 E. Tropicana Ave,Las Vegas,NV,89121,Sprouts Farmers Market,,,-115.101808,36.099049,,
6689 Las VEGAS BLVD. South,LAS VEGAS,NV,89119,Whole Foods Market VEGAS BLVD,702-5897-711,http://www.wholefoodsmarket.com/,-115.17425,36.06762,,
4020 S. Rainbow Blvd,Las Vegas,NV,89103,Sprouts Farmers Market,,,-115.241327,36.115275,,
7250 W. Lake Mead Blvd.,TENAYA,NV,89128,Whole Foods Market TENAYA VEGAS,702-942-1500,http://www.wholefoodsmarket.com/,-115.250049,36.197631,,
"10000 W. Sahara Ave, Suite 180",Las Vegas,NV,89117,Sprouts Farmers Market,,,-115.31285,36.14449,,
79050 Hwy 111,La Quinta,CA,92253,Sprouts Farmers Market,,,-116.28525,33.70924,,
152 N. 2nd Street,El Cajon,CA,92021,Sprouts Farmers Market,,,-116.936471,32.795883,,
878 Eastlake Parkway,Chula Vista,CA,91914,Sprouts Farmers Market,(619) 421-2099,http://sproutschulavista.com/,-116.970596,32.651813,,
1295 S. State Street,Hemet,CA,92543,Sprouts Farmers Market,,,-116.972137,33.727893,,
9361 Mission Gorge Rd,Santee,CA,92071,Sprouts Farmers Market,,,-116.993423,32.837417,,
4630 Palm Ave,La Mesa,CA,91941,Sprouts Farmers Market,,,-117.01866,32.762835,,
3205 Lemon Grove Ave,Lemon Grove,CA,91945,Sprouts Farmers Market,,,-117.029875,32.740675,,
13536 Poway Rd,Poway,CA,92064,Sprouts Farmers Market,,,-117.037461,32.957219,,
15727 Bernardo Heights Pkwy,Rancho Bernardo,CA,92128,Sprouts Farmers Market,,,-117.058434,33.003563,,
6386 Del Cerro Blvd.,San Diego,CA,92120,Windmill Farms,619-287-1400,http://www.organicfood-sandiego.com/,-117.059713,32.783756,,
11710 Carmel Mountain Rd,San Diego,CA,92128,Sprouts Farmers Market,,,-117.08015,32.98109,,
510 W. 13th Street,Escondido,CA,92025,Sprouts Farmers Market,,,-117.080392,33.107992,,
32413 Temecula Parkway,Temecula,CA,92592,Sprouts Farmers Market,,,-117.091853,33.48097,,
39606 Winchester Rd,Rancho Temecula,CA,92591,Sprouts Farmers Market,,,-117.142344,33.541226,,
4175 Park Blvd,San Diego,CA,92103,Sprouts Farmers Market,,,-117.145875,32.753421,,
711 University Avenue,SAN DIEGO,CA,92103,Whole Foods Market HILLCREST,619-294-2800,http://www.wholefoodsmarket.com/,-117.158078,32.748023,,
4439 Genesee Ave,San Diego,CA,92117,Sprouts Farmers Market,,,-117.18513,32.82391,,
149 S. Las Posas Road,San Marcos,CA,92078,Sprouts Farmers Market,,,-117.190438,33.140425,,
3315 Rosecrans St #B,San Diego,CA,92110,Sprouts Farmers Market,,,-117.206512,32.747546,,
3358 Governor Dr,San Diego,CA,92122,Sprouts Farmers Market,,,-117.214508,32.851752,,
3243 Camino de los Coches,Carlsbad,CA,92009,Sprouts Farmers Market,,,-117.238634,33.074971,,
1260 Garnet Ave,San Diego,CA,92109,Sprouts Farmers Market,,,-117.247016,32.798675,,
659 Lomas Santa Fe Dr,Solana Beach,CA,92075,Sprouts Farmers Market,,,-117.259749,32.995639,,
1327 Encinitas Blvd,Encinitas,CA,92024,Sprouts Farmers Market,,,-117.2609,33.04477,,
471 College Blvd #1,Oceanside,CA,92057,Sprouts Farmers Market,,,-117.29092,33.24445,,
2618 El Camino Real,Carlsbad,CA,92008,Sprouts Farmers Market,,,-117.324861,33.176509,,
475 East Alessandro Blvd,Riverside,CA,92508,Sprouts Farmers Market,,,-117.32859,33.9163,,
1820 Oceanside Blvd,Oceanside,CA,92054,Frazier Farms Market Oceanside,,http://www.frazierfarmsmarket.com/,-117.35861,33.19244,,
7355 Day Creek Blvd,Rancho Cucamonga,CA,91739,Sprouts Farmers Market,,,-117.535259,34.119797,,
120 W. Ontario Ave,Corona,CA,92882,Sprouts Farmers Market,,,-117.570758,33.855807,,
9456 Roberds St. ,Rancho Cucamonga,CA,91701,Viva La Vegan Grocery,(909) 941-4495,,-117.599087,34.1224,,
27765 Santa Margarita Pkwy,Mission Viejo,CA,92691,Sprouts Farmers Market,,,-117.645991,33.654249,,
847 W. Foothill Blvd,Upland,CA,91786,Sprouts Farmers Market,,,-117.661871,34.106996,,
27271 La Paz Road,Laguna Niguel,CA,92677,Sprouts Farmers Market,,,-117.70943,33.56711,,
24165 Paseo de Valencia ,Laguna Woods,CA,92653,Mothers Market and Kitchen-Laguna Woods,,https://www.mothersmarket.com/,-117.714278,33.611744,,
3630 Grand Ave,Chino Hills,CA,91709,Sprouts Farmers Market,,,-117.727517,34.003166,,
835 West Foothill Blvd,Claremont,CA,91711,Sprouts Farmers Market,,,-117.730037,34.107584,,
22401 Old Canal Road,Yorba Linda,CA,92887,Sprouts Farmers Market,,,-117.745105,33.873614,,
5759 East Santa Ana Canyon Road,Anaheim Hills,CA,92807,Mothers Market and Kitchen-Anaheim Hills,,https://www.mothersmarket.com/,-117.788287,33.853222,,
3011 El Camino Real,Tustin,CA,92782,Sprouts Farmers Market,,,-117.79365,33.72353,,
3775 Alton Pkwy,Irvine,CA,92606,Sprouts Farmers Market,,,-117.81487,33.6844,,
14945 Holt Avenue,Tustin,CA,92780,Sprouts Farmers Market,,,-117.815512,33.74647,,
2847 Park Avenue,TUSTIN,CA,92780,Whole Foods Market JAMBOREE,714-566-7650,http://www.wholefoodsmarket.com/,-117.82583,33.69647,,
17482 Yorba Linda Blvd,Yorba Linda,CA,92886,Sprouts Farmers Market,,,-117.829156,33.887642,,
1500 East Village Way #2279,Orange,CA,92865,Sprouts Farmers Market,,,-117.837789,33.827064,,
2963 Michelson Drive ,Irvine,CA,92612,Mothers Market and Kitchen-Irvine,,https://www.mothersmarket.com/,-117.846211,33.672099,,
151 E. Memory Lane,Santa Ana,CA,92705,Mothers Market and Kitchen-Santa Ana,,https://www.mothersmarket.com/,-117.866212,33.773222,,need to include in newsletter
415 Newport Center Dr,NEWPORT BEACH,CA,92660,Whole Foods Market NEWPORT BEACH,(949) 999-8572 ,http://www.wholefoodsmarket.com/,-117.87365,33.61654,,
413 S. Associated Road,Brea,CA,92821,Mothers Market and Kitchen-Brea,,https://www.mothersmarket.com/,-117.880472,33.912659,,
735 East Birch Street,Brea,CA,92821,Sprouts Farmers Market,,,-117.889327,33.918994,,
1890 Newport Blvd.,Costa Mesa,CA,92627,Mothers Market and Kitchen-Costa Mesa,,https://www.mothersmarket.com/,-117.916191,33.642584,,
255 E. 17th Street,Costa Mesa,CA,92627,Sprouts Farmers Market,,,-117.91683,33.63407,,
3030 Harbor Blvd,Costa Mesa,CA,92626,Sprouts Farmers Market,,,-117.91729,33.682418,,
1447 S. Harbor Blvd #D,Fullerton,CA,92832,Sprouts Farmers Market,,,-117.92436,33.85589,,
9861 Adams Ave,Huntington Beach,CA,92646,Sprouts Farmers Market,,,-117.955354,33.673364,,
19770 Beach Blvd. ,Huntington Beach,CA,92648,Mothers Market and Kitchen-Huntington Beach,,https://www.mothersmarket.com/,-117.987113,33.674833,,
7881 Edinger Ave Suite 150,HUNTINGTON BEACH,CA,92647,Whole Foods Market HUNTINGTON BEACH,,http://www.wholefoodsmarket.com/,-117.990502,33.731256,,
6942 Warner Ave,Huntington Beach,CA,92647,Sprouts Farmers Market,,,-118.007544,33.714469,,
400 West Huntington Dr,Monrovia,CA,91016,Sprouts Farmers Market,,,-118.007812,34.139607,,
12301 Seal Beach Blvd,Seal Beach,CA,90740,Sprouts Farmers Market,,,-118.073364,33.784244,,
39 N. Rosemead Blvd,Pasadena,CA,91107,Sprouts Farmers Market,,,-118.074004,34.14712,,
4253 Woodruff Ave,Lakewood,CA,90713,Sprouts Farmers Market,,,-118.117681,33.835715,,
465 South Arroyo Parkway,PASADENA,CA,91105,Whole Foods Market ARROYO,626-204-2266,http://www.wholefoodsmarket.com/,-118.147695,34.137502,,
820 N. Western Ave,San Pedro,CA,90732,Sprouts Farmers Market,,,-118.307996,33.750466,,
1011 N. San Fernando Blvd,Burbank,CA,91504,Sprouts Farmers Market,,,-118.318859,34.186893,,
1515 Hawthorne Blvd,Redondo Beach,CA,90278,Sprouts Farmers Market,,,-118.353947,33.868348,,
4230 Pacific Coast Hwy,Torrance,CA,90505,Sprouts Farmers Market,,,-118.359042,33.806516,,
6350 West 3rd Street,LOS ANGELES,CA,90036,Whole Foods Market FAIRFAX,323-964-6800,http://www.wholefoodsmarket.com/,-118.36077,34.0702,,
7871 Santa Monica Boulevard,WEST HOLLYWOOD,CA,90046,Whole Foods Market WEST HOLLYWOOD,323-848-4200,http://www.wholefoodsmarket.com/,-118.360773,34.091511,,
760 South Sepulveda Blvd.,EL SEGUNDO,CA,90245,Whole Foods Market PACIFIC COAST HIGHWAY,310-333-1900,http://www.wholefoodsmarket.com/,-118.39279,33.90626,,
5660 Sepulveda Blvd,Culver City,CA,90230,Sprouts Farmers Market,,,-118.394201,33.989256,,
13208 W Washington Blvd,Culver City,CA,90066,Rainbow Acres,(310) 823-8381,http://www.rainbowacresca.com/,-118.44158,33.99317,,
2723 Ocean Park Blvd,Santa Monica,CA,90405,Viva La Vegan Grocery,(909) 941-4495,http://www.vivalavegangrocery.com/,-118.45656,34.01852,,
225 Lincoln Blvd. ,VENICE,CA,90291,Whole Foods Market VENICE,310-56-69480,http://www.wholefoodsmarket.com/,-118.470066,34.001603,,
2201 Wilshire Blvd.,SANTA MONICA,CA,90403,Whole Foods Market SANTA MONICA,310-315-0662,http://www.wholefoodsmarket.com/,-118.481367,34.033249,,
18010 Chatsworth St,Granada Hills,CA,91344,Sprouts Farmers Market,,,-118.524303,34.263425,,
24285 Magic Mtn Pkwy,Santa Clarita,CA,91355,Sprouts Farmers Market,,,-118.560603,34.420728,,
21821 Ventura Blvd,Woodland Hills,CA,91364,Sprouts Farmers Market,,,-118.602969,34.169588,,
6605 Fallbrook Avenue,West Hills,CA,91307,Sprouts Farmers Market,,,-118.62443,34.18933,,
1012 Westlake Blvd,Westlake Village,CA,91361,Sprouts Farmers Market,,,-118.82706,34.15219,,
740 N. Moorpark Road,THOUSAND OAKS,CA,91360,Whole Foods Market THOUSAND OAKS,805-77-74730,http://www.wholefoodsmarket.com/,-118.873364,34.187759,,
600 W. Hillcrest Dr,Thousand Oaks,CA,91360,Sprouts Farmers Market,,,-118.892328,34.184851,,
3761 State St.,SANTA BARBARA,CA,93105,Whole Foods Market SANTA BARBARA,805-837-6959,http://www.wholefoodsmarket.com/,-119.745418,34.439238,,
7477 N. Blackstone,Fresno,CA,93720,Sprouts Farmers Market,,,-119.793229,36.844782,,
1531 Froom Ranch Way,SAN LUIS OBISPO,CA,93405,Whole Foods Market SAN LUIS OBISPO NEW!,805-785-0194,http://www.wholefoodsmarket.com/,-120.68714,35.250748,,
1700 McHenry Blvd,Modesto,CA,95350,Sprouts Farmers Market,,,-120.99246,37.66859,,
135 Argall Way,Nevada City,CA,95959,California Organics,(530) 265-9392,,-121.025234,39.252249,,
2610 NE Hwy 20,BEND,OR,97701,Whole Foods Market BEND,,http://www.wholefoodsmarket.com/,-121.265931,44.056308,,
6760 Stanford Ranch Rd,Roseville,CA,95678,Sprouts Farmers Market,,,-121.269233,38.780328,,
7905 Greenback Lane,Citrus Heights,CA,95610,Sprouts Farmers Market,,,-121.270616,38.679762,,
8211 Laguna Blvd,Elk Grove,CA,95758,Sprouts Farmers Market,,,-121.40604,38.423475,,
"21 LOWER RAGSDALE DR., SUITE A          ",MONTEREY,CA,93940,MARKET AMERICA INC,,,-121.811438,36.574699,,
1130 Branham Lane,San Jose,CA,95118,Sprouts Farmers Market,,,-121.878166,37.261978,,
7153 Amador Plaza Rd,Dublin,CA,94568,Sprouts Farmers Market,,,-121.929168,37.7078,,
3900 Mowry Ave,Fremont,CA,94538,Sprouts Farmers Market,,,-121.986878,37.549025,,
5205 Prospect Road,San Jose,CA,95129,Sprouts Farmers Market,,,-121.992631,37.292736,,
111 E. El Camino Real,Sunnyvale,CA,94087,Sprouts Farmers Market,,,-122.030326,37.367425,,
1530 Geary Road,Walnut Creek,CA,94597,Sprouts Farmers Market,,,-122.0641,37.9264,,
17991 N.E. Redmond Way ,REDMOND,WA,98052,Whole Foods Market REDMOND,,http://www.wholefoodsmarket.com/,-122.101228,47.666098,,
630 San Antonio Rd.,Mountain View,CA,94040,Sprouts Farmers Market,,,-122.113488,37.402896,,
888 116th Avenue N.E.,BELLEVUE,WA,98004,Whole Foods Market BELLEVUE,,http://www.wholefoodsmarket.com/,-122.184586,47.618546,,
3130 Alpine Road,Portola Valley,CA,94028,Bianchini's Market - Portola Valley ,(650) 851-4391,http://www.bianchinismarket.com/,-122.193093,37.4013,,
14500 Juanita Dr NE ,Kenmore,WA,98028,Bastyr University - Bookstore,(425) 602-3000,http://bookstore.bastyr.edu/default.aspx,-122.251911,47.729936,,
2800 196th St. SW,LYNNWOOD,WA,98036,Whole Foods Market LYNNWOOD,,http://www.wholefoodsmarket.com/,-122.272315,47.819887,,
1026 N.E. 64th Street,SEATTLE,WA,98115,Whole Foods Market SEATTLE,,http://www.wholefoodsmarket.com/,-122.316227,47.675301,,
2200 Westlake Ave.,SEATTLE,WA,98109,Whole Foods Market WESTLAKE,,http://www.wholefoodsmarket.com/,-122.337659,47.618376,,
2001 15th Ave West,Seattle ,WA,98119,Whole Foods Market INTERBAY,,http://www.wholefoodsmarket.com/,-122.376946,47.637141,,
"The Ferry Building 1 Ferry Bldg, Ste 38C",San Francisco,CA,94111,Buyer's Best Friend - Wholesale and Market,(415) 223-3912,,-122.393511,37.795563,,
450 Columbus Ave.,San Francisco,CA,94133,Mercato Food & Gift,,,-122.4083,37.79923,,
798 Haight St,San Francisco,CA,94117,Santa Clara Natural Organic Market,,,-122.435247,37.771752,,
1740 Haight St,San Francisco,CA,94117,Buyer's Best Friend Mercantile Store,(415) 375-0439,,-122.450934,37.769743,,
815 Southeast 160th Ave.,MILL PLAIN,WA,98683,Whole Foods Market VANCOUVER,,http://www.wholefoodsmarket.com/,-122.505816,45.614687,,
4301 Northeast Sandy Boulevard,PORTLAND,OR,97213,Whole Foods Market HOLLYWOOD,,http://www.wholefoodsmarket.com/,-122.618601,45.536914,,
401 Kenilworth Drive #1040,Petaluma,CA,94952,Sprouts Farmers Market,,,-122.623659,38.242858,,
2825 East Burnside St,LAURELHURST,OR,97214,Whole Foods Market PORTLAND,,http://www.wholefoodsmarket.com/,-122.636728,45.523146,,
3535 NE 15th Ave.,Portland,OR,97212,Whole Foods Market PORTLAND,,http://www.wholefoodsmarket.com/,-122.65116,45.54882,,
1210 N.W. Couch Street,PORTLAND,OR,97209,Whole Foods Market PORTLAND,,http://www.wholefoodsmarket.com/,-122.683347,45.523456,,
7380 SW Bridgeport Road,TIGARD,OR,97224,Whole Foods Market BRIDGEPORT,,http://www.wholefoodsmarket.com/,-122.751863,45.39443,,
414 Kearney St.,Port Townsend,WA,98368,The Food Coop,Phone: (360) 385-2883 ,http://foodcoop.coop/,-122.770647,48.110736,,
19440 NW Cornell Road,HILLSBORO,OR,97124,Whole Foods Market TANNASBOURNE,,http://www.wholefoodsmarket.com/,-122.876962,45.533755,,
711 Vandercook Way,Longview,WA,98632,Country Village Nutrition,,,-122.923653,46.145713,,
629 Kailua Road,KAILUA,HI,96734,Whole Foods Market KAILUA,808-263-6800,http://www.wholefoodsmarket.com/,-157.742849,21.393769,,
4211 Wai'alea Ave. Ste. T1 ,HONOLULU,HI,96816,Whole Foods Market HONOLULU,808-738-0820,http://www.wholefoodsmarket.com/,-157.786106,21.277686,,